IRIDIUM 119             
1 42959U 17061E   24249.65155837  .00000661  00000+0  22910-3 0  9994
2 42959  86.3942 296.6863 0001897  87.5773 272.5640 14.34217949361713
IRIDIUM 107             
1 42960U 17061F   24249.53103694  .00000884  00000+0  30868-3 0  9995
2 42960  86.3944 296.7541 0001940  91.1759 268.9659 14.34225593361718
IRIDIUM 132             
1 42961U 17061G   24249.67693008  .00000924  00000+0  32279-3 0  9997
2 42961  86.3944 296.6773 0001805  97.3366 262.8035 14.34218026361722
IRIDIUM 136             
1 42962U 17061H   24249.63887063  .00000737  00000+0  25625-3 0  9999
2 42962  86.3944 296.6971 0002122  87.7475 272.3963 14.34216976361739
IRIDIUM 139             
1 42963U 17061J   24249.64521460  .00000129  00000+0  39138-4 0  9997
2 42963  86.3945 296.7455 0001783  91.9534 268.1866 14.34217512361747
IRIDIUM 125             
1 42964U 17061K   24249.63252874  .00000516  00000+0  17725-3 0  9994
2 42964  86.3948 296.8003 0001899  76.9578 283.1830 14.34216756361758
IRIDIUM 135             
1 43070U 17083A   24249.88573174 -.00000049  00000+0 -24567-4 0  9999
2 43070  86.3947 233.3237 0002356  94.4931 265.6534 14.34216934351087
IRIDIUM 138             
1 43071U 17083B   24249.91110139 -.00000033  00000+0 -19003-4 0  9994
2 43071  86.3936 233.0201 0002311  78.2344 281.9111 14.34217133351076
